OBJECT_NAME,OBJECT_ID,EPOCH,MEAN_MOTION,ECCENTRICITY,INCLINATION,RA_OF_ASC_NODE,ARG_OF_PERICENTER,MEAN_ANOMALY,EPHEMERIS_TYPE,CLASSIFICATION_TYPE,NORAD_CAT_ID,ELEMENT_SET_NO,REV_AT_EPOCH,BSTAR,MEAN_MOTION_DOT,MEAN_MOTION_DDOT
SHUNTIAN,2019-093H,2026-05-20T03:58:16.271040,14.94996465,.0012311,97.8000,228.4731,153.1465,207.0395,0,U,44886,999,34799,.10118E-3,.1049E-4,0
ELEKTRO-L 3,2019-095A,2026-05-20T04:19:42.233088,1.00270721,.0000913,0.1854,80.1093,315.1582,343.4405,0,U,44903,999,2342,0,-.1E-5,0
GONETS-M 14,2019-096A,2026-05-20T04:41:54.241152,12.42868400,.0012382,82.5213,101.9937,210.4111,149.6252,0,U,44905,999,29020,-.70044E-3,-.87E-6,0
GONETS-M 15,2019-096B,2026-05-20T03:28:22.155168,12.42869804,.0013982,82.5233,102.4823,235.6295,124.3462,0,U,44906,999,29016,-.4318E-3,-.5E-6,0
GONETS-M 16,2019-096C,2026-05-20T04:06:49.264128,12.42890473,.0009709,82.5180,101.4313,282.6992,77.3002,0,U,44907,999,29015,-.50706E-3,-.6E-6,0
RS-44 & BREEZE-KM R/B,2019-096E,2026-05-20T02:15:50.319360,12.79748364,.021691,82.5231,358.3764,209.8294,149.0299,0,U,44909,999,29875,.27474E-4,.17E-6,0
JILIN-1 KUANFU 01,2020-003A,2026-05-20T04:48:17.978112,15.10546934,.0010739,97.5035,214.7042,46.2084,314.0032,0,U,45016,999,35110,.12281E-3,.1964E-4,0
XINGYUN-2 01,2020-028A,2026-05-20T05:01:43.076640,15.11672755,.0007662,97.4861,133.1693,309.0982,50.9567,0,U,45602,999,33061,.54344E-4,.861E-5,0
XINGYUN-2 02,2020-028B,2026-05-20T04:23:52.249632,15.11408095,.0011538,97.5072,146.6697,17.9050,342.2584,0,U,45603,999,33060,.53113E-4,.834E-5,0
HAIYANG-1D,2020-036A,2026-05-20T04:56:25.431360,14.34163204,.0001712,98.4554,82.4966,211.1402,148.9682,0,U,45721,999,31096,.10242E-3,.244E-5,0
M2 PATHFINDER,2020-037E,2026-05-19T18:46:54.502464,15.04537414,.00099656,97.8159,330.6972,245.4969,114.5217,0,U,45727,999,32122,.7660919E-4,.101E-4,0
GAOFEN DUOMO (GFDM),2020-042A,2026-05-20T05:24:52.889760,14.76836212,.0011476,97.7757,201.1266,156.2258,203.9484,0,U,45856,999,31688,.57087E-4,.352E-5,0
ZIYUAN 3-03 (ZY 3-03),2020-051A,2026-05-20T03:58:32.805408,15.21277904,.0005795,97.2846,208.7947,55.0889,305.0891,0,U,45939,999,32308,.13601E-4,.238E-5,0
NEMO-HD,2020-061F,2026-05-20T04:51:00.923328,15.43972607,.0002628,97.1930,202.4477,114.6855,245.4667,0,U,46277,999,31766,.17034E-3,.767E-4,0
NAPA-1,2020-061BA,2026-05-20T04:13:50.617920,15.64282171,.0001823,97.2478,213.5136,139.5530,220.5865,0,U,46320,999,31735,.54072E-3,.51655E-3,0
JILIN-1 GAOFEN 3E,2020-065D,2026-05-20T03:51:32.097888,15.60279208,.0010133,97.2275,192.1887,254.6152,105.3986,0,U,46457,999,31538,.51141E-3,.41882E-3,0
JILIN-1 GAOFEN 3F,2020-065E,2026-05-20T04:55:44.243616,15.58018522,.0011762,97.2230,189.6929,243.3161,116.6892,0,U,46458,999,31534,.4809E-3,.36157E-3,0
JILIN-1 GAOFEN 3G,2020-065F,2026-05-20T04:58:35.904000,15.66288433,.001273,97.2306,196.0777,149.5867,210.6134,0,U,46459,999,31555,.56083E-3,.58305E-3,0
JILIN-1 GAOFEN 3H,2020-065G,2026-05-20T04:33:19.678176,15.63714435,.0008656,97.2250,192.5369,99.7859,260.4378,0,U,46460,999,31550,.53581E-3,.50135E-3,0
HAIYANG-2C,2020-066A,2026-05-20T04:30:17.199648,13.83372164,.0009918,65.9978,284.9951,239.6351,120.3738,0,U,46469,999,28562,.31421E-4,-.47E-6,0
HJ-2A,2020-067A,2026-05-20T04:16:08.972832,14.76571889,.0003649,97.8828,219.2098,21.3933,338.7429,0,U,46478,999,30412,.96671E-4,.625E-5,0
HJ-2B,2020-067B,2026-05-20T05:08:32.423424,14.76517078,.0001244,97.8891,220.2462,79.1139,281.0211,0,U,46479,999,30413,.47906E-4,.284E-5,0
GONETS-M 17,2020-068A,2026-05-20T02:46:31.885248,12.42872570,.0023408,82.5003,4.9686,95.7761,264.5989,0,U,46486,999,25567,.1107E-2,.163E-5,0
GONETS-M 18,2020-068B,2026-05-20T03:50:06.788256,12.42871292,.0020733,82.4956,4.0697,92.1308,268.2146,0,U,46487,999,25566,-.29347E-3,-.31E-6,0
GONETS-M 19,2020-068C,2026-05-20T03:15:18.686016,12.42891311,.0014342,82.4981,4.5300,105.8615,254.4047,0,U,46488,999,25576,.25494E-4,.14E-6,0
DEKART,2020-068H,2026-05-20T05:05:40.934112,15.36636140,.0009879,97.8749,147.4949,35.9726,324.2180,0,U,46493,999,31147,.26177E-3,.9289E-4,0
NORBI,2020-068J,2026-05-20T05:29:11.166144,15.47159422,.0006577,97.8641,153.7571,18.8494,341.2997,0,U,46494,999,31188,.33621E-3,.16993E-3,0
