SHUNTIAN                
1 44886U 19093H   26140.16546610  .00001049  00000+0  10118-3 0  9991
2 44886  97.8000 228.4731 0012311 153.1465 207.0395 14.94996465347991
ELEKTRO-L 3             
1 44903U 19095A   26140.18034992 -.00000100  00000+0  00000+0 0  9993
2 44903   0.1854  80.1093 0000913 315.1582 343.4405  1.00270721 23423
GONETS-M 14             
1 44905U 19096A   26140.19576668 -.00000087  00000+0 -70044-3 0  9992
2 44905  82.5213 101.9937 0012382 210.4111 149.6252 12.42868400290208
GONETS-M 15             
1 44906U 19096B   26140.14470087 -.00000050  00000+0 -43180-3 0  9997
2 44906  82.5233 102.4823 0013982 235.6295 124.3462 12.42869804290167
GONETS-M 16             
1 44907U 19096C   26140.17140352 -.00000060  00000+0 -50706-3 0  9993
2 44907  82.5180 101.4313 0009709 282.6992  77.3002 12.42890473290152
RS-44 & BREEZE-KM R/B   
1 44909U 19096E   26140.09433240  .00000017  00000+0  27474-4 0  9994
2 44909  82.5231 358.3764 0216910 209.8294 149.0299 12.79748364298754
JILIN-1 KUANFU 01       
1 45016U 20003A   26140.20020808  .00001964  00000+0  12281-3 0  9990
2 45016  97.5035 214.7042 0010739  46.2084 314.0032 15.10546934351102
XINGYUN-2 01            
1 45602U 20028A   26140.20952635  .00000861  00000+0  54344-4 0  9992
2 45602  97.4861 133.1693 0007662 309.0982  50.9567 15.11672755330617
XINGYUN-2 02            
1 45603U 20028B   26140.18324363  .00000834  00000+0  53113-4 0  9994
2 45603  97.5072 146.6697 0011538  17.9050 342.2584 15.11408095330603
HAIYANG-1D              
1 45721U 20036A   26140.20584990  .00000244  00000+0  10242-3 0  9991
2 45721  98.4554  82.4966 0001712 211.1402 148.9682 14.34163204310968
M2 PATHFINDER           
1 45727U 20037E   26139.78257526  .00001010  00000+0  76609-4 0  9993
2 45727  97.8159 330.6972 0009965 245.4969 114.5217 15.04537414321229
GAOFEN DUOMO (GFDM)     
1 45856U 20042A   26140.22561215  .00000352  00000+0  57087-4 0  9993
2 45856  97.7757 201.1266 0011476 156.2258 203.9484 14.76836212316884
ZIYUAN 3-03 (ZY 3-03)   
1 45939U 20051A   26140.16565747  .00000238  00000+0  13601-4 0  9999
2 45939  97.2846 208.7947 0005795  55.0889 305.0891 15.21277904323086
NEMO-HD                 
1 46277U 20061F   26140.20209402  .00007670  00000+0  17034-3 0  9994
2 46277  97.1930 202.4477 0002628 114.6855 245.4667 15.43972607317662
NAPA-1                  
1 46320U 20061BA  26140.17628030  .00051655  00000+0  54072-3 0  9996
2 46320  97.2478 213.5136 0001823 139.5530 220.5865 15.64282171317359
JILIN-1 GAOFEN 3E       
1 46457U 20065D   26140.16078817  .00041882  00000+0  51141-3 0  9997
2 46457  97.2275 192.1887 0010133 254.6152 105.3986 15.60279208315381
JILIN-1 GAOFEN 3F       
1 46458U 20065E   26140.20537319  .00036157  00000+0  48090-3 0  9998
2 46458  97.2230 189.6929 0011762 243.3161 116.6892 15.58018522315349
JILIN-1 GAOFEN 3G       
1 46459U 20065F   26140.20736000  .00058305  00000+0  56083-3 0  9997
2 46459  97.2306 196.0777 0012730 149.5867 210.6134 15.66288433315559
JILIN-1 GAOFEN 3H       
1 46460U 20065G   26140.18981109  .00050135  00000+0  53581-3 0  9991
2 46460  97.2250 192.5369 0008656  99.7859 260.4378 15.63714435315507
HAIYANG-2C              
1 46469U 20066A   26140.18769907 -.00000047  00000+0  31421-4 0  9999
2 46469  65.9978 284.9951 0009918 239.6351 120.3738 13.83372164285624
HJ-2A                   
1 46478U 20067A   26140.17788163  .00000625  00000+0  96671-4 0  9993
2 46478  97.8828 219.2098 0003649  21.3933 338.7429 14.76571889304129
HJ-2B                   
1 46479U 20067B   26140.21426416  .00000284  00000+0  47906-4 0  9997
2 46479  97.8891 220.2462 0001244  79.1139 281.0211 14.76517078304135
GONETS-M 17             
1 46486U 20068A   26140.11564682  .00000163  00000+0  11070-2 0  9990
2 46486  82.5003   4.9686 0023408  95.7761 264.5989 12.42872570255679
GONETS-M 18             
1 46487U 20068B   26140.15980079 -.00000031  00000+0 -29347-3 0  9990
2 46487  82.4956   4.0697 0020733  92.1308 268.2146 12.42871292255660
GONETS-M 19             
1 46488U 20068C   26140.13563294  .00000014  00000+0  25494-4 0  9994
2 46488  82.4981   4.5300 0014342 105.8615 254.4047 12.42891311255769
DEKART                  
1 46493U 20068H   26140.21227933  .00009289  00000+0  26177-3 0  9997
2 46493  97.8749 147.4949 0009879  35.9726 324.2180 15.36636140311476
NORBI                   
1 46494U 20068J   26140.22860146  .00016993  00000+0  33621-3 0  9990
2 46494  97.8641 153.7571 0006577  18.8494 341.2997 15.47159422311888
